[Satellite]
VERSION=1.1
NAME=SIRIUS-3
NICKNAME=SIRIUS-3
TLE1=1 26626U 00077A   11057.77766080 -.00000156  00000-0  00000+0 0  7328
TLE2=2 26626  64.0190   9.7873 2693517 270.1666  59.3495  1.00272660 37525
